NORAD_CAT_ID,OBJECT_NAME,OBJECT_TYPE,EPOCH,MEAN_MOTION,ECCENTRICITY,INCLINATION,RA_OF_ASC_NODE,ARG_OF_PERICENTER,MEAN_ANOMALY,BSTAR,MEAN_MOTION_DOT,MEAN_MOTION_DDOT,TLE_LINE0,TLE_LINE1,TLE_LINE2,SEMIMAJOR_AXIS,PERIOD,APOGEE,PERIGEE,DECAYED
53844.0,STARLINK-4745,PAYLOAD,2022-11-16 00:00:00,15.7318455,0.0004011,53.2158,331.9624,6.5327,72.8353,0.00025595,0.00035439,0.0,0 STARLINK-4745,1 53844U 22114AC  22320.00001157  .00035439  00000-0  25595-3 0  9990,2 53844  53.2158 331.9624 0004011   6.5327  72.8353 15.73184550  9700,6727.939,91.534,352.50300000000016,347.106,0.0
53844.0,STARLINK-4745,PAYLOAD,2022-11-16 14:00:01,15.73168621,0.0004393,53.2164,329.0768,5.5161,139.5275,0.00047305,0.00066232,0.0,0 STARLINK-4745,1 53844U 22114AC  22320.58335648  .00066232  00000-0  47305-3 0  9996,2 53844  53.2164 329.0768 0004393   5.5161 139.5275 15.73168621  9796,6727.985,91.535,352.805,346.894,0.0
53844.0,STARLINK-4745,PAYLOAD,2022-11-16 22:00:08,15.73212629,0.0004181,53.2171,327.4237,9.7982,224.5623,-9.2436e-05,-0.00013591,0.0,0 STARLINK-4745,1 53844U 22114AC  22320.91675926 -.00013591  00000-0 -92436-4 0  9997,2 53844  53.2171 327.4237 0004181   9.7982 224.5623 15.73212629  1308,6727.859,91.532,352.537,346.911,0.0
53844.0,STARLINK-4745,PAYLOAD,2022-11-17 06:00:00,15.73228909,0.0004228,53.2153,325.7786,3.1418,319.7252,-0.00027037,-0.00038464,0.0,0 STARLINK-4745,1 53844U 22114AC  22321.25001157 -.00038464  00000-0 -27037-3 0  9994,2 53844  53.2153 325.7786 0004228   3.1418 319.7252 15.73228909  9897,6727.813,91.531,352.522,346.833,0.0
53844.0,STARLINK-4745,PAYLOAD,2022-11-17 14:00:01,15.73187106,0.0004279,53.2149,324.1292,2.5775,49.2409,0.00019938,0.00027446,0.0,0 STARLINK-4745,1 53844U 22114AC  22321.58334491  .00027446  00000-0  19938-3 0  9997,2 53844  53.2149 324.1292 0004279   2.5775  49.2409 15.73187106  1302,6727.932,91.534,352.676,346.918,0.0
53844.0,STARLINK-4745,PAYLOAD,2022-11-17 22:00:00,15.73214071,0.0003917,53.2153,322.4769,2.8024,137.946,0.00026227,0.00036379,0.0,0 STARLINK-4745,1 53844U 22114AC  22321.91667824  .00036379  00000-0  26227-3 0  9997,2 53844  53.2153 322.4769 0003917   2.8024 137.9460 15.73214071  1309,6727.855,91.532,352.355,347.085,0.0
53844.0,STARLINK-4745,PAYLOAD,2022-11-18 06:00:00,15.73326987,0.0003567,53.2168,320.8276,352.3451,237.3651,-0.0047408,-0.00622804,0.0,0 STARLINK-4745,1 53844U 22114AC  22322.25001157 -.00622804  00000-0 -47408-2 0  9995,2 53844  53.2168 320.8276 0003567 352.3451 237.3651 15.73326987 10057,6727.533,91.526,351.798,346.99800000000016,0.0
53844.0,STARLINK-4745,PAYLOAD,2022-11-18 14:00:01,15.73019139,0.0003605,53.2169,319.1774,315.8381,2.6757,-0.0083149,-0.01044229,0.0,0 STARLINK-4745,1 53844U 22114AC  22322.58334491 -.01044229  00000-0 -83149-2 0  9993,2 53844  53.2169 319.1774 0003605 315.8381   2.6757 15.73019139 10105,6728.411,91.544,352.701,347.85,0.0
53844.0,STARLINK-4745,PAYLOAD,2022-11-18 22:00:00,15.72214118,0.0005322,53.2171,317.5278,288.1037,118.6905,-0.0086687,-0.01051853,0.0,0 STARLINK-4745,1 53844U 22114AC  22322.91667824 -.01051853  00000-0 -86687-2 0  9990,2 53844  53.2171 317.5278 0005322 288.1037 118.6905 15.72214118  1305,6730.706999999999,91.591,356.155,348.99,0.0
53844.0,STARLINK-4745,PAYLOAD,2022-11-19 14:00:01,15.70703906,0.0006259999999999,53.2164,314.2389,270.4577,309.9159,-0.010799,-0.01230297,0.0,0 STARLINK-4745,1 53844U 22114AC  22323.58334491 -.01230297  00000-0 -10799-1 0  9996,2 53844  53.2164 314.2389 0006260 270.4577 309.9159 15.70703906  1301,6735.021,91.679,361.102,352.67,0.0
53844.0,STARLINK-4745,PAYLOAD,2022-11-19 22:00:00,15.69807488,0.0003399,53.2173,312.594,267.2757,38.4886,-0.010034,-0.01093399,0.0,0 STARLINK-4745,1 53844U 22114AC  22323.91667824 -.01093399  00000-0 -10034-1 0  9994,2 53844  53.2173 312.5940 0003399 267.2757  38.4886 15.69807488 10319,6737.585,91.731,361.74,357.16,0.0
53844.0,STARLINK-4745,PAYLOAD,2022-11-20 14:00:01,15.68259097,0.0001033,53.2167,309.3176,35.5217,77.9745,-0.011914,-0.01222921,0.0,0 STARLINK-4745,1 53844U 22114AC  22324.58334491 -.01222921  00000-0 -11914-1 0  9992,2 53844  53.2167 309.3176 0001033  35.5217  77.9745 15.68259097 10427,6742.019,91.822,364.58,363.187,0.0
53844.0,STARLINK-4745,PAYLOAD,2022-11-20 22:00:00,15.67383413,0.000131,53.2175,307.6791,62.8668,133.078,-0.011408,-0.01138287,0.0,0 STARLINK-4745,1 53844U 22114AC  22324.91667824 -.01138287  00000-0 -11408-1 0  9997,2 53844  53.2175 307.6791 0001310  62.8668 133.0780 15.67383413  1300,6744.53,91.873,367.278,365.511,0.0
53844.0,STARLINK-4745,PAYLOAD,2022-11-21 08:00:01,15.66366519,0.0001046,53.2174,305.6391,83.0423,304.5479,-0.011897,-0.01138675,0.0,0 STARLINK-4745,1 53844U 22114AC  22325.33334491 -.01138675  00000-0 -11897-1 0  9998,2 53844  53.2174 305.6391 0001046  83.0423 304.5479 15.66366519 10535,6747.449000000001,91.933,370.019,368.608,0.0
53844.0,STARLINK-4745,PAYLOAD,2022-11-21 14:00:01,15.65792181,0.0001071,53.2165,304.4144,65.8417,291.9868,-0.012758,-0.01187702,0.0,0 STARLINK-4745,1 53844U 22114AC  22325.58334491 -.01187702  00000-0 -12758-1 0  9997,2 53844  53.2165 304.4144 0001071  65.8417 291.9868 15.65792181  1300,6749.098000000001,91.966,371.686,370.241,0.0
53844.0,STARLINK-4745,PAYLOAD,2022-11-21 22:00:00,15.64933016,0.0001174,53.2165,302.7827,63.9006,13.4338,-0.012434,-0.01124608,0.0,0 STARLINK-4745,1 53844U 22114AC  22325.91667824 -.01124608  00000-0 -12434-1 0  9990,2 53844  53.2165 302.7827 0001174  63.9006  13.4338 15.64933016  1308,6751.568,92.017,374.226,372.641,0.0
53844.0,STARLINK-4745,PAYLOAD,2022-11-22 08:00:01,15.63940816,0.0001178,53.2169,300.7499,83.1689,182.1319,-0.013357,-0.01157634,0.0,0 STARLINK-4745,1 53844U 22114AC  22326.33334491 -.01157634  00000-0 -13357-1 0  9998,2 53844  53.2169 300.7499 0001178  83.1689 182.1319 15.63940816 10690,6754.424,92.075,377.084,375.49300000000005,0.0
53844.0,STARLINK-4745,PAYLOAD,2022-11-22 14:00:01,15.63301512,0.0001101,53.2169,299.5286,74.3282,159.107,-0.013185,-0.01118079,0.0,0 STARLINK-4745,1 53844U 22114AC  22326.58335648 -.01118079  00000-0 -13185-1 0  9999,2 53844  53.2169 299.5286 0001101  74.3282 159.1070 15.63301512  1306,6756.265,92.113,378.874,377.386,0.0
53844.0,STARLINK-4745,PAYLOAD,2022-11-22 22:00:00,15.62518402,0.0001065,53.2171,297.9032,68.5007,241.4063,-0.014155,-0.01159407,0.0,0 STARLINK-4745,1 53844U 22114AC  22326.91667824 -.01159407  00000-0 -14155-1 0  9998,2 53844  53.2171 297.9032 0001065  68.5007 241.4063 15.62518402  1303,6758.522,92.159,381.107,379.667,0.0
53844.0,STARLINK-4745,PAYLOAD,2022-11-23 08:00:01,15.6148126,0.0001278,53.2174,295.8774,65.4606,68.7676,-0.014354,-0.01131832,0.0,0 STARLINK-4745,1 53844U 22114AC  22327.33334491 -.01131832  00000-0 -14354-1 0  9999,2 53844  53.2174 295.8774 0001278  65.4606  68.7676 15.61481260 10853,6761.515,92.22,384.244,382.515,0.0
53844.0,STARLINK-4745,PAYLOAD,2022-11-23 14:00:01,15.60895941,0.0001209,53.2168,294.661,64.8372,35.2352,-0.015194,-0.01167253,0.0,0 STARLINK-4745,1 53844U 22114AC  22327.58334491 -.01167253  00000-0 -15194-1 0  9995,2 53844  53.2168 294.6610 0001209  64.8372  35.2352 15.60895941  1303,6763.205,92.255,385.887,384.252,0.0
53844.0,STARLINK-4745,PAYLOAD,2022-11-23 22:00:00,15.60050077,0.0001321,53.2168,293.0415,64.3554,109.3485,-0.015011,-0.01120884,0.0,0 STARLINK-4745,1 53844U 22114AC  22327.91667824 -.01120884  00000-0 -15011-1 0  9998,2 53844  53.2168 293.0415 0001321  64.3554 109.3485 15.60050077  1304,6765.649,92.305,388.408,386.621,0.0
53844.0,STARLINK-4745,PAYLOAD,2022-11-24 08:00:01,15.59043758,0.000105,53.2171,291.0233,82.1731,272.1711,-0.015846,-0.01136639,0.0,0 STARLINK-4745,1 53844U 22114AC  22328.33334491 -.01136639  00000-0 -15846-1 0  9997,2 53844  53.2171 291.0233 0001050  82.1731 272.1711 15.59043758 11003,6768.56,92.364,391.136,389.715,0.0
53844.0,STARLINK-4745,PAYLOAD,2022-11-24 14:00:01,15.58432356,0.0001076,53.217,289.811,72.737,245.2633,-0.01621,-0.01136017,0.0,0 STARLINK-4745,1 53844U 22114AC  22328.58334491 -.01136017  00000-0 -16210-1 0  9990,2 53844  53.2170 289.8110 0001076  72.7370 245.2633 15.58432356  1304,6770.331,92.401,392.924,391.467,0.0
53844.0,STARLINK-4745,PAYLOAD,2022-11-24 22:00:00,15.57634177,0.0001177,53.2166,288.1976,56.8182,331.8571,-0.017006,-0.01154325,0.0,0 STARLINK-4745,1 53844U 22114AC  22328.91667824 -.01154325  00000-0 -17006-1 0  9992,2 53844  53.2166 288.1976 0001177  56.8182 331.8571 15.57634177  1304,6772.643,92.448,395.305,393.711,0.0
53844.0,STARLINK-4745,PAYLOAD,2022-11-25 08:00:01,15.56595961,0.0001246,53.2172,286.1867,83.3945,122.2692,-0.0171979999999999,-0.01125619,0.0,0 STARLINK-4745,1 53844U 22114AC  22329.33334491 -.01125619  00000-0 -17198-1 0  9996,2 53844  53.2172 286.1867 0001246  83.3945 122.2692 15.56595961 11164,6775.654,92.51,398.364,396.675,0.0
53844.0,STARLINK-4745,PAYLOAD,2022-11-25 14:00:01,15.56022904,0.0001276,53.217,284.9791,66.444,100.6562,-0.01844,-0.01175782,0.0,0 STARLINK-4745,1 53844U 22114AC  22329.58334491 -.01175782  00000-0 -18440-1 0  9990,2 53844  53.2170 284.9791 0001276  66.4440 100.6562 15.56022904  1302,6777.318,92.544,400.048,398.318,0.0
53844.0,STARLINK-4745,PAYLOAD,2022-11-25 22:00:00,15.55195295,0.0001252999999999,53.2169,283.3715,72.7119,162.1454,-0.018668,-0.01156305,0.0,0 STARLINK-4745,1 53844U 22114AC  22329.91667824 -.01156305  00000-0 -18668-1 0  9998,2 53844  53.2169 283.3715 0001253  72.7119 162.1454 15.55195295  1303,6779.722,92.593,402.436,400.737,0.0
53844.0,STARLINK-4745,PAYLOAD,2022-11-26 06:00:00,15.54370529,0.0001122,53.2173,281.7688,83.8696,217.7642,-0.018991,-0.0114241,0.0,0 STARLINK-4745,1 53844U 22114AC  22330.25001157 -.01142410  00000-0 -18991-1 0  9999,2 53844  53.2173 281.7688 0001122  83.8696 217.7642 15.54370529 11308,6782.12,92.642,404.746,403.224,0.0
